CCSDS_OMM_VERS = 2.0
CREATION_DATE  = 
ORIGINATOR     = 

OBJECT_NAME    = ARIANE 40 R/B
OBJECT_ID      = 1990-005H
CENTER_NAME    = EARTH
REF_FRAME      = TEME
TIME_SYSTEM    = UTC
MEAN_ELEMENT_THEORY = SGP/SGP4

EPOCH          = 2025-11-26T03:07:04.952352
MEAN_MOTION    = 14.39779754
ECCENTRICITY   = .0010776
INCLINATION    = 98.3265
RA_OF_ASC_NODE = 28.7757
ARG_OF_PERICENTER = 151.3256
MEAN_ANOMALY   = 208.8527

EPHEMERIS_TYPE = 0
CLASSIFICATION_TYPE = U
NORAD_CAT_ID   = 20443
ELEMENT_SET_NO = 999
REV_AT_EPOCH   = 87790
BSTAR          = .13634E-3
MEAN_MOTION_DOT = .385E-5
MEAN_MOTION_DDOT = 0

CCSDS_OMM_VERS = 2.0
CREATION_DATE  = 
ORIGINATOR     = 

OBJECT_NAME    = DELTA 2 R/B(1)
OBJECT_ID      = 1990-008B
CENTER_NAME    = EARTH
REF_FRAME      = TEME
TIME_SYSTEM    = UTC
MEAN_ELEMENT_THEORY = SGP/SGP4

EPOCH          = 2025-11-26T03:16:59.200320
MEAN_MOTION    = 15.43582010
ECCENTRICITY   = .0114193
INCLINATION    = 35.6052
RA_OF_ASC_NODE = 127.6079
ARG_OF_PERICENTER = 26.5194
MEAN_ANOMALY   = 334.1323

EPHEMERIS_TYPE = 0
CLASSIFICATION_TYPE = U
NORAD_CAT_ID   = 20453
ELEMENT_SET_NO = 999
REV_AT_EPOCH   = 91006
BSTAR          = .61776E-3
MEAN_MOTION_DOT = .36683E-3
MEAN_MOTION_DDOT = 0

CCSDS_OMM_VERS = 2.0
CREATION_DATE  = 
ORIGINATOR     = 

OBJECT_NAME    = COSMOS 2058
OBJECT_ID      = 1990-010A
CENTER_NAME    = EARTH
REF_FRAME      = TEME
TIME_SYSTEM    = UTC
MEAN_ELEMENT_THEORY = SGP/SGP4

EPOCH          = 2025-11-25T23:54:40.624992
MEAN_MOTION    = 15.10254912
ECCENTRICITY   = .00093388
INCLINATION    = 82.4631
RA_OF_ASC_NODE = 149.5027
ARG_OF_PERICENTER = 341.1741
MEAN_ANOMALY   = 18.9142

EPHEMERIS_TYPE = 0
CLASSIFICATION_TYPE = U
NORAD_CAT_ID   = 20465
ELEMENT_SET_NO = 999
REV_AT_EPOCH   = 92658
BSTAR          = .29880096E-3
MEAN_MOTION_DOT = .4919E-4
MEAN_MOTION_DDOT = 0

CCSDS_OMM_VERS = 2.0
CREATION_DATE  = 
ORIGINATOR     = 

OBJECT_NAME    = SL-14 R/B
OBJECT_ID      = 1990-010B
CENTER_NAME    = EARTH
REF_FRAME      = TEME
TIME_SYSTEM    = UTC
MEAN_ELEMENT_THEORY = SGP/SGP4

EPOCH          = 2025-11-26T03:39:21.731040
MEAN_MOTION    = 14.83448690
ECCENTRICITY   = .0018299
INCLINATION    = 82.5031
RA_OF_ASC_NODE = 4.6262
ARG_OF_PERICENTER = 281.9825
MEAN_ANOMALY   = 77.9339

EPHEMERIS_TYPE = 0
CLASSIFICATION_TYPE = U
NORAD_CAT_ID   = 20466
ELEMENT_SET_NO = 999
REV_AT_EPOCH   = 91313
BSTAR          = .60149E-4
MEAN_MOTION_DOT = .519E-5
MEAN_MOTION_DDOT = 0

CCSDS_OMM_VERS = 2.0
CREATION_DATE  = 
ORIGINATOR     = 

OBJECT_NAME    = SL-14 R/B
OBJECT_ID      = 1990-018B
CENTER_NAME    = EARTH
REF_FRAME      = TEME
TIME_SYSTEM    = UTC
MEAN_ELEMENT_THEORY = SGP/SGP4

EPOCH          = 2025-11-26T01:41:43.346112
MEAN_MOTION    = 14.82021052
ECCENTRICITY   = .001792
INCLINATION    = 82.5199
RA_OF_ASC_NODE = 319.9467
ARG_OF_PERICENTER = 74.5942
MEAN_ANOMALY   = 285.7250

EPHEMERIS_TYPE = 0
CLASSIFICATION_TYPE = U
NORAD_CAT_ID   = 20511
ELEMENT_SET_NO = 999
REV_AT_EPOCH   = 90723
BSTAR          = .66876E-4
MEAN_MOTION_DOT = .556E-5
MEAN_MOTION_DDOT = 0

CCSDS_OMM_VERS = 2.0
CREATION_DATE  = 
ORIGINATOR     = 

OBJECT_NAME    = HST
OBJECT_ID      = 1990-037B
CENTER_NAME    = EARTH
REF_FRAME      = TEME
TIME_SYSTEM    = UTC
MEAN_ELEMENT_THEORY = SGP/SGP4

EPOCH          = 2025-11-26T04:49:36.985728
MEAN_MOTION    = 15.27714577
ECCENTRICITY   = .0002025
INCLINATION    = 28.4701
RA_OF_ASC_NODE = 25.0274
ARG_OF_PERICENTER = 65.3604
MEAN_ANOMALY   = 294.7201

EPHEMERIS_TYPE = 0
CLASSIFICATION_TYPE = U
NORAD_CAT_ID   = 20580
ELEMENT_SET_NO = 999
REV_AT_EPOCH   = 75746
BSTAR          = .30762E-3
MEAN_MOTION_DOT = .88E-4
MEAN_MOTION_DDOT = 0

CCSDS_OMM_VERS = 2.0
CREATION_DATE  = 
ORIGINATOR     = 

OBJECT_NAME    = SL-16 R/B
OBJECT_ID      = 1990-046B
CENTER_NAME    = EARTH
REF_FRAME      = TEME
TIME_SYSTEM    = UTC
MEAN_ELEMENT_THEORY = SGP/SGP4

EPOCH          = 2025-11-25T23:48:09.451584
MEAN_MOTION    = 14.14992144
ECCENTRICITY   = .00121933
INCLINATION    = 70.9965
RA_OF_ASC_NODE = 155.6938
ARG_OF_PERICENTER = 104.5921
MEAN_ANOMALY   = 255.6555

EPHEMERIS_TYPE = 0
CLASSIFICATION_TYPE = U
NORAD_CAT_ID   = 20625
ELEMENT_SET_NO = 999
REV_AT_EPOCH   = 83372
BSTAR          = .15828845E-3
MEAN_MOTION_DOT = .259E-5
MEAN_MOTION_DDOT = 0

CCSDS_OMM_VERS = 2.0
CREATION_DATE  = 
ORIGINATOR     = 

OBJECT_NAME    = COSMOS 2084
OBJECT_ID      = 1990-055A
CENTER_NAME    = EARTH
REF_FRAME      = TEME
TIME_SYSTEM    = UTC
MEAN_ELEMENT_THEORY = SGP/SGP4

EPOCH          = 2025-11-26T03:44:27.919680
MEAN_MOTION    = 15.04866310
ECCENTRICITY   = .0034366
INCLINATION    = 62.7914
RA_OF_ASC_NODE = 328.4939
ARG_OF_PERICENTER = 172.6826
MEAN_ANOMALY   = 187.4784

EPHEMERIS_TYPE = 0
CLASSIFICATION_TYPE = U
NORAD_CAT_ID   = 20663
ELEMENT_SET_NO = 999
REV_AT_EPOCH   = 92073
BSTAR          = .25178E-3
MEAN_MOTION_DOT = .3418E-4
MEAN_MOTION_DDOT = 0

CCSDS_OMM_VERS = 2.0
CREATION_DATE  = 
ORIGINATOR     = 

OBJECT_NAME    = SL-6 R/B(2)
OBJECT_ID      = 1990-055D
CENTER_NAME    = EARTH
REF_FRAME      = TEME
TIME_SYSTEM    = UTC
MEAN_ELEMENT_THEORY = SGP/SGP4

EPOCH          = 2025-11-26T03:13:52.387104
MEAN_MOTION    = 15.02963786
ECCENTRICITY   = .0011385
INCLINATION    = 62.7831
RA_OF_ASC_NODE = 245.8312
ARG_OF_PERICENTER = 295.3792
MEAN_ANOMALY   = 64.6128

EPHEMERIS_TYPE = 0
CLASSIFICATION_TYPE = U
NORAD_CAT_ID   = 20666
ELEMENT_SET_NO = 999
REV_AT_EPOCH   = 92262
BSTAR          = .23709E-3
MEAN_MOTION_DOT = .3011E-4
MEAN_MOTION_DDOT = 0

CCSDS_OMM_VERS = 2.0
CREATION_DATE  = 
ORIGINATOR     = 

OBJECT_NAME    = SL-8 R/B
OBJECT_ID      = 1990-078B
CENTER_NAME    = EARTH
REF_FRAME      = TEME
TIME_SYSTEM    = UTC
MEAN_ELEMENT_THEORY = SGP/SGP4

EPOCH          = 2025-11-26T02:13:56.312832
MEAN_MOTION    = 14.84917465
ECCENTRICITY   = .0377334
INCLINATION    = 82.9053
RA_OF_ASC_NODE = 344.1990
ARG_OF_PERICENTER = 1.7758
MEAN_ANOMALY   = 358.4692

EPHEMERIS_TYPE = 0
CLASSIFICATION_TYPE = U
NORAD_CAT_ID   = 20775
ELEMENT_SET_NO = 999
REV_AT_EPOCH   = 79390
BSTAR          = .79965E-3
MEAN_MOTION_DOT = .25829E-3
MEAN_MOTION_DDOT = 0

CCSDS_OMM_VERS = 2.0
CREATION_DATE  = 
ORIGINATOR     = 

OBJECT_NAME    = SL-8 R/B
OBJECT_ID      = 1991-006B
CENTER_NAME    = EARTH
REF_FRAME      = TEME
TIME_SYSTEM    = UTC
MEAN_ELEMENT_THEORY = SGP/SGP4

EPOCH          = 2025-11-26T04:59:51.111744
MEAN_MOTION    = 13.77487268
ECCENTRICITY   = .0021887
INCLINATION    = 82.9430
RA_OF_ASC_NODE = 247.0085
ARG_OF_PERICENTER = 328.4342
MEAN_ANOMALY   = 185.0542

EPHEMERIS_TYPE = 0
CLASSIFICATION_TYPE = U
NORAD_CAT_ID   = 21088
ELEMENT_SET_NO = 999
REV_AT_EPOCH   = 74982
BSTAR          = .10789E-3
MEAN_MOTION_DOT = .123E-5
MEAN_MOTION_DDOT = 0

CCSDS_OMM_VERS = 2.0
CREATION_DATE  = 
ORIGINATOR     = 

OBJECT_NAME    = OKEAN-3
OBJECT_ID      = 1991-039A
CENTER_NAME    = EARTH
REF_FRAME      = TEME
TIME_SYSTEM    = UTC
MEAN_ELEMENT_THEORY = SGP/SGP4

EPOCH          = 2025-11-26T01:11:38.819040
MEAN_MOTION    = 15.03953457
ECCENTRICITY   = .0013891
INCLINATION    = 82.5175
RA_OF_ASC_NODE = 77.1982
ARG_OF_PERICENTER = 327.4908
MEAN_ANOMALY   = 32.5461

EPHEMERIS_TYPE = 0
CLASSIFICATION_TYPE = U
NORAD_CAT_ID   = 21397
ELEMENT_SET_NO = 999
REV_AT_EPOCH   = 84945
BSTAR          = .36362E-3
MEAN_MOTION_DOT = .5053E-4
MEAN_MOTION_DDOT = 0

