ARIANE 40 R/B           
1 20443U 90005H   25330.12991843  .00000385  00000+0  13634-3 0  9992
2 20443  98.3265  28.7757 0010776 151.3256 208.8527 14.39779754877907
DELTA 2 R/B(1)          
1 20453U 90008B   25330.13679630  .00036683  00000+0  61776-3 0  9994
2 20453  35.6052 127.6079 0114193  26.5194 334.1323 15.43582010910069
COSMOS 2058             
1 20465U 90010A   25329.99630352  .00004919  00000+0  29880-3 0  9997
2 20465  82.4631 149.5027 0009339 341.1741  18.9142 15.10254912926581
SL-14 R/B               
1 20466U 90010B   25330.15233485  .00000519  00000+0  60149-4 0  9990
2 20466  82.5031   4.6262 0018299 281.9825  77.9339 14.83448690913135
SL-14 R/B               
1 20511U 90018B   25330.07064058  .00000556  00000+0  66876-4 0  9992
2 20511  82.5199 319.9467 0017920  74.5942 285.7250 14.82021052907239
HST                     
1 20580U 90037B   25330.20112252  .00008800  00000+0  30762-3 0  9998
2 20580  28.4701  25.0274 0002025  65.3604 294.7201 15.27714577757462
SL-16 R/B               
1 20625U 90046B   25329.99177605  .00000259  00000+0  15829-3 0  9992
2 20625  70.9965 155.6938 0012193 104.5921 255.6555 14.14992144833723
COSMOS 2084             
1 20663U 90055A   25330.15587870  .00003418  00000+0  25178-3 0  9991
2 20663  62.7914 328.4939 0034366 172.6826 187.4784 15.04866310920734
SL-6 R/B(2)             
1 20666U 90055D   25330.13463411  .00003011  00000+0  23709-3 0  9993
2 20666  62.7831 245.8312 0011385 295.3792  64.6128 15.02963786922624
SL-8 R/B                
1 20775U 90078B   25330.09301288  .00025829  00000+0  79965-3 0  9993
2 20775  82.9053 344.1990 0377334   1.7758 358.4692 14.84917465793909
SL-8 R/B                
1 21088U 91006B   25330.20823046  .00000123  00000+0  10789-3 0  9996
2 21088  82.9430 247.0085 0021887 328.4342 185.0542 13.77487268749823
OKEAN-3                 
1 21397U 91039A   25330.04975485  .00005053  00000+0  36362-3 0  9994
2 21397  82.5175  77.1982 0013891 327.4908  32.5461 15.03953457849454
